sat1_satellite_id,sat1_epoch,sat1_mean_motion,sat1_eccentricity,sat1_inclination,sat1_raan,sat1_argument_of_perigee,sat1_mean_anomaly,sat1_perigee,sat1_apogee,sat1_period,sat1_semi_major_axis,sat1_orbital_energy,sat1_orbital_angular_momentum,sat1_rev_number,sat1_bstar,sat1_mean_motion_derivative,sat1_cluster,sat2_satellite_id,sat2_epoch,sat2_mean_motion,sat2_eccentricity,sat2_inclination,sat2_raan,sat2_argument_of_perigee,sat2_mean_anomaly,sat2_perigee,sat2_apogee,sat2_period,sat2_semi_major_axis,sat2_orbital_energy,sat2_orbital_angular_momentum,sat2_rev_number,sat2_bstar,sat2_mean_motion_derivative,sat2_cluster,mean_motion,eccentricity,inclination,raan,argument_of_perigee,mean_anomaly,perigee,apogee,period,semi_major_axis,orbital_energy,orbital_angular_momentum,bstar,mean_motion_derivative,close_approach
STARLINK-4375,25034.59260476,15.01251945,4.03e-05,1.7044798208514023,1.7123215851806128,0.44619516860160235,5.8391613281674655,569.8919467440801,570.451405181163,1.5986657056420974,6941.1716759626215,-28712763.522357408,52599943841.74654,14010,0.0001076,1.323e-05,0,STARLINK-11182 [DTC],25033.00992456,15.69714741,0.0001464,0.9277227825805779,4.560852513409535,1.3043857791119782,4.9808590165849616,365.8637622598153,367.8366047935515,1.528940219081498,6737.850183526683,-29579200.408353917,51823836237.51942,2881,4.0426e-08,-5.84e-06,0,-0.6846279600000003,-0.0001061,0.7767570382708243,-2.8485309282289224,-0.8581906105103758,0.8583023115825039,204.02818448426478,202.61480038761147,0.0697254865605994,203.32149243593813,866436.8859965093,776107604.2271194,0.000107559574,1.907e-05,False
STARLINK-3807,25034.59620419,15.08814066,0.0001178,0.9288432839603583,3.3287355826348852,1.3943505207352778,4.890798281852803,546.1447243145303,547.7745956104172,1.5906532515054088,6917.959659962474,-28809104.229596086,52511919966.329636,15553,-0.00015126999999999998,-2.693e-05,0,STARLINK-30849,25033.98668714,15.02578739,0.0001922,0.7505788448201615,5.193040439079165,4.33564744403695,1.948649637876157,564.7516779825792,567.4182934510891,1.597254065765133,6937.084985716834,-28729678.432706356,52584456239.1286,6960,-0.0006639899999999999,-9.172e-05,0,0.062353270000000904,-7.44e-05,0.17826443914019685,-1.8643048564442797,-2.9412969233016724,2.9421486439766458,-18.606953668048845,-19.643697840671848,-0.0066008142597242525,-19.125325754360347,-79425.7968897298,-72536272.79896545,0.0005127199999999999,6.479e-05,False
YAOGAN-31 03A,25034.58632699,13.4538326,0.0132748,1.1066364842025167,0.6796992785674197,6.258590127360482,0.025701718564868494,997.301383245167,1195.5586633922703,1.7838782979951724,7467.430023318719,-26689265.286402486,54552693636.09441,19369,0.00017495,1.9e-07,0,STARLINK-5121,25034.51058617,15.08842004,0.0001257,0.9287787067780344,3.5056159756782503,1.5720878704413723,4.713080130768479,546.0046867496658,547.7438403395199,1.5906237986730891,6917.874263544593,-28809459.858248737,52511595806.987076,12926,9.016800000000001e-05,1.148e-05,0,-1.6345874400000007,0.0131491,0.17785777742448228,-2.8259166971108307,4.68650225691911,-4.687378412203611,451.29669649550124,647.8148230527504,0.19325449932208327,549.5557597741254,2120194.5718462504,2041097829.107338,8.478199999999999e-05,-1.129e-05,False
STARLINK-30849,25033.98668714,15.02578739,0.0001922,0.7505788448201615,5.193040439079165,4.33564744403695,1.948649637876157,564.7516779825792,567.4182934510891,1.597254065765133,6937.084985716834,-28729678.432706356,52584456239.1286,6960,-0.0006639899999999999,-9.172e-05,0,RROCI-2,25034.32769153,14.95922483,0.0007442,1.7066091225388353,2.8187625925069058,3.8457247963558814,2.4386281360932887,581.4700402663138,591.8258034331948,1.6043612067297184,6957.647921849754,-28644769.487993035,52662320491.78429,5007,0.00054077,6e-05,0,0.0665625599999995,-0.000552,-0.9560302777186739,2.374277846572259,0.48992264768106875,-0.4899784982171316,-16.718362283734677,-24.407509982105694,-0.007107140964585312,-20.562936132920186,-84908.94471332058,-77864252.65568542,-0.00120476,-0.00015172,False
STARLINK-4033,25034.55293687,15.08841533,0.0001353,0.9287839427657905,2.4598757744070676,1.9800184405222512,4.305146070029097,545.9397146177116,547.8116917829966,1.590624295202243,6917.875703200354,-28809453.862809293,52511601205.20687,15083,-2.991e-05,-7.64e-06,0,MARAFON-D GVM,25034.58187564,14.45617062,0.001502,1.5533447796042053,5.995750523327144,3.7980965063982084,2.4853593268154373,736.4453721247,757.8282551128104,1.6601906985516728,7118.136813618756,-27998930.91668165,53266181370.15361,4914,0.00022192999999999998,8e-06,0,0.6322447100000002,-0.0013667,-0.6245608368384148,-3.535874748920077,-1.8180780658759572,1.8197867432136596,-190.50565750698843,-210.01656332981383,-0.06956640334942987,-200.26111041840159,-810522.946127642,-754580164.9467392,-0.00025184,-1.564e-05,False
YAOGAN-31 03A,25034.58632699,13.4538326,0.0132748,1.1066364842025167,0.6796992785674197,6.258590127360482,0.025701718564868494,997.301383245167,1195.5586633922703,1.7838782979951724,7467.430023318719,-26689265.286402486,54552693636.09441,19369,0.00017495,1.9e-07,0,STARLINK-32195,25034.04318658,15.30183498,0.0001377,0.9278152850309336,4.769906305884163,1.6380892414347898,4.647117157018606,481.45762849484436,483.34505522439304,1.5684393428218737,6853.401341859619,-29080482.95416497,52266325209.451035,2812,-6.1012000000000005e-05,-2.165e-05,0,-1.8480023800000005,0.0131371,0.17882119917158312,-4.090207027316743,4.620500885925692,-4.621415438453737,515.8437547503227,712.2136081678773,0.2154389551732987,614.0286814591,2391217.6677624844,2286368426.643379,0.000235962,2.184e-05,False
STARLINK-4033,25034.55293687,15.08841533,0.0001353,0.9287839427657905,2.4598757744070676,1.9800184405222512,4.305146070029097,545.9397146177116,547.8116917829966,1.590624295202243,6917.875703200354,-28809453.862809293,52511601205.20687,15083,-2.991e-05,-7.64e-06,0,STARLINK-5745,25034.00428717,15.02529402,5.49e-05,0.7505421929058694,0.2904350048366204,4.448076318462668,1.8364738361919775,565.8559878275564,566.6176964328224,1.597306513140697,6937.236842130189,-28729049.538807686,52585032678.605736,10879,-3.5052e-05,-6.77e-06,0,0.06312130999999965,8.04e-05,0.17824174985992103,2.169440769570447,-2.468057877940417,2.468672233837119,-19.916273209844803,-18.80600464982581,-0.006682217938454027,-19.36113892983485,-80404.32400160655,-73431473.39886475,5.142000000000003e-06,-8.699999999999993e-07,False
RROCI-2,25034.32769153,14.95922483,0.0007442,1.7066091225388353,2.8187625925069058,3.8457247963558814,2.4386281360932887,581.4700402663138,591.8258034331948,1.6043612067297184,6957.647921849754,-28644769.487993035,52662320491.78429,5007,0.00054077,6e-05,0,STARLINK-32125,25034.42303014,15.30139756,0.0001499,0.9278362289819575,1.861562944189396,1.6258684460123256,4.659362387050598,481.5046086062039,483.55929748572726,1.5684841796895292,6853.531953045966,-29079928.75285619,52266823157.62549,3059,0.00030141,8.562e-05,0,-0.3421727299999997,0.0005943,0.7787728935568778,0.9571996483175098,2.219856350343556,-2.220734250957309,99.96543166010997,108.26650594746752,0.035877027040189136,104.11596880378875,435159.2648631558,395497334.1587982,0.00023935999999999999,-2.5619999999999995e-05,False
STARLINK-2021,25034.18552842,15.0644308,0.0002933,0.9260053785966155,0.08832587745567703,2.374365113034858,3.9109547318199174,552.1853610820444,556.247693096836,1.5931567756280554,6925.21652708944,-28778915.449126434,52539453078.57602,22072,0.0018595999999999999,0.00027559,0,STARLINK-5431,25034.39143812,15.08844923,0.0001326,0.9288415386311062,0.633130403465707,1.4744035375365017,4.8107766809781145,545.9480324192255,547.7826503077549,1.5906207214642936,6917.86534136349,-28809497.014684375,52511561897.32471,11964,-1.5734000000000002e-05,-5.38e-06,0,-0.024018429999999924,0.00016069999999999998,-0.00283616003449072,-0.54480452601003,0.8999615754983563,-0.8998219491581971,6.237328662818982,8.465042789081053,0.0025360541637617917,7.3511857259500175,30581.565557941794,27891181.251312256,0.001875334,0.00028096999999999996,False
STARLINK-3935,25034.51429234,15.08839512,0.0001661,0.9288345573140983,2.11333716076509,2.0199201578813453,4.2652967125475625,545.73282040491,548.0309407656405,1.5906264257480531,6917.881880585275,-28809428.137148034,52511624406.840294,15118,-5.6105000000000006e-05,-1.181e-05,0,MARAFON-D GVM,25034.58187564,14.45617062,0.001502,1.5533447796042053,5.995750523327144,3.7980965063982084,2.4853593268154373,736.4453721247,757.8282551128104,1.6601906985516728,7118.136813618756,-27998930.91668165,53266181370.15361,4914,0.00022192999999999998,8e-06,0,0.6322244999999995,-0.0013359,-0.624510222290107,-3.8824133625620543,-1.7781763485168631,1.7799373857321252,-190.7125517197901,-209.79731434716996,-0.06956427280361965,-200.25493303348048,-810497.2204663828,-754556963.3133163,-0.000278035,-1.9810000000000002e-05,False
STARLINK-4033,25034.55293687,15.08841533,0.0001353,0.9287839427657905,2.4598757744070676,1.9800184405222512,4.305146070029097,545.9397146177116,547.8116917829966,1.590624295202243,6917.875703200354,-28809453.862809293,52511601205.20687,15083,-2.991e-05,-7.64e-06,0,STARLINK-4375,25034.59260476,15.01251945,4.03e-05,1.7044798208514023,1.7123215851806128,0.44619516860160235,5.8391613281674655,569.8919467440801,570.451405181163,1.5986657056420974,6941.1716759626215,-28712763.522357408,52599943841.74654,14010,0.0001076,1.323e-05,0,0.07589588000000091,9.5e-05,-0.7756958780856118,0.7475541892264548,1.5338232719206488,-1.5340152581383686,-23.95223212636847,-22.63971339816635,-0.008041410439854513,-23.29597276226741,-96690.34045188501,-88342636.53966522,-0.00013751,-2.0870000000000002e-05,False
